THURAYA-4               
1 62483U 25001A   26178.92127839  .00000151  00000+0  00000+0 0  9991
2 62483   0.0193  59.7103 0000347 350.9807 241.3008  1.00274358  4281
SHIJIAN-25 (SJ-25)      
1 62485U 25002A   26178.77336132 -.00000342  00000+0  00000+0 0  9998
2 62485   5.1374  61.1022 0051248 174.7567  85.7137  1.00279028  5461
TJS-14                  
1 62804U 25017A   26179.00181006  .00000128  00000+0  00000+0 0  9995
2 62804   0.7585 296.3685 0001130 291.2944  67.4851  1.00269775  5375
SPAINSAT NG I           
1 62852U 25021A   26178.81201237  .00000163  00000+0  00000+0 0  9999
2 62852   0.0174 353.9578 0000291  83.5157 159.7520  1.00270488  4090
QZS-6 (MICHIBIKI-6)     
1 62876U 25023A   26178.97641105 -.00000222  00000+0  00000+0 0  9993
2 62876   0.0531 281.8260 0002091 187.2347 249.0484  1.00273273  5057
ZHONGXING-10R           
1 63075U 25036A   26178.98041219 -.00000340  00000+0  00000+0 0  9991
2 63075   0.0661 248.1157 0003978 256.2189 235.2213  1.00273355  5069
TJS-15                  
1 63157U 25045A   26178.75701104 -.00000252  00000+0  00000+0 0  9995
2 63157   0.2983  85.6294 0004600 303.6535 253.4359  1.00268468  4869
TIANLIAN 2-04           
1 63361U 25062A   26178.95251345 -.00000118  00000+0  00000+0 0  9991
2 63361   4.3474 274.2809 0031118  10.1825  54.5624  1.00271833  4719
TJS-16                  
1 63397U 25064A   26178.76358005 -.00000094  00000+0  00000+0 0  9995
2 63397   1.1249  81.4164 0003190 299.2299 330.7308  1.00272301  4493
TJS-17                  
1 63524U 25073A   26178.77908465 -.00000059  00000+0  00000+0 0  9990
2 63524   1.0909  82.6274 0001820 313.4105 324.8708  1.00270974  4396
TIANLIAN 2-05           
1 63662U 25084A   26179.04489368  .00000142  00000+0  00000+0 0  9994
2 63662   4.4242 279.7079 0003447 156.2864 236.7154  1.00275415  4492
TJS-19                  
1 63924U 25097A   26178.74554611 -.00000261  00000+0  00000+0 0  9992
2 63924   3.2685 317.6134 0003102 238.2200 129.6850  1.00273761  4257
CHINASAT 3B             
1 64062U 25106A   26178.91067583 -.00000033  00000+0  00000+0 0  9990
2 64062   0.0214 113.4177 0003643  14.0717 283.6680  1.00272032  4168
SXM-10                  
1 64290U 25122A   26178.71196255 -.00000005  00000+0  00000+0 0  9997
2 64290   0.0182  31.1534 0001913 338.4571  46.3449  1.00272372  3788
COSMOS 2589             
1 64467U 25131A   26178.75626586 -.00000281  00000+0  00000+0 0  9998
2 64467   0.0431 113.4326 0000528  15.5786 157.0876  1.00279915  3667
CHINASAT 9C             
1 64470U 25132A   26178.88219367 -.00000236  00000+0  00000+0 0  9992
2 64470   0.0358  93.6029 0003403 359.3649 232.8161  1.00271755  4259
MTG-S1                  
1 64723U 25143A   26178.94873535  .00000004  00000+0  00000+0 0  9997
2 64723   0.5946 341.2382 0002748 268.0372   7.8563  1.00271994  3522
DROR 1                  
1 64784U 25148A   26178.92753183 -.00000023  00000+0  00000+0 0  9995
2 64784   0.0166 347.7682 0002712  52.2704 205.8821  1.00272033  3404
SHIYAN-29               
1 65486U 25196A   26178.62615772 -.00000276  00000+0  00000+0 0  9996
2 65486  28.8324  18.4036 0012806 174.9175  42.7694  1.00283230  2981
NUSANTARA LIMA (NUSANT*)
1 65588U 25205A   26178.97851925 -.00000346  00000+0  00000+0 0  9998
2 65588   0.0074 119.1855 0000542  19.5255 242.4996  1.00270339  2826
TJS-20                  
1 66142U 25238A   26178.93691319  .00000042  00000+0  00000+0 0  9998
2 66142   5.4456 299.5100 0004747 165.2410 210.9651  1.00270782  2443
CMS-03 (GSAT-7R)        
1 66311U 25249B   26178.84961417 -.00000065  00000+0  00000+0 0  9993
2 66311   0.0664 263.2803 0002187 166.5830 225.9223  1.00271929  2453
VIASAT-3 F2             
1 66454U 25261A   26178.86190204 -.00000222  00000+0  00000+0 0  9990
2 66454   0.0038 302.9770 0000521 224.3910 339.9054  1.00271728  2907
SHIJIAN-28 (SJ-28)      
1 66549U 25277A   26178.98141782 -.00000343  00000+0  00000+0 0  9996
2 66549   4.5109 271.9575 0000718  44.5636  69.7202  1.00272495  2267
TJS-22                  
1 66990U 25290A   26178.84780755  .00000007  00000+0  00000+0 0  9991
2 66990   1.5031 286.6917 0002290 322.1718  38.7637  1.00272783  2138
TJS-23                  
1 67226U 25306A   26178.57359281  .00000034  00000+0  00000+0 0  9998
2 67226   5.5645 297.4332 0004534 181.6850 178.5201  1.00271320  1994
FENGYUN 4C              
1 67246U 25312A   26179.04644253 -.00000311  00000+0  00000+0 0  9995
2 67246   0.0484 170.1852 0000589 350.5369 265.1486  1.00272145  1881
SHIJIAN-29A (SJ-29A)    
1 67302U 25315A   26178.97777709 -.00000058  00000+0  00000+0 0  9993
2 67302   3.4246  94.8558 0003577  23.2879 223.0792  1.00271262  1727
SHIJIAN-29B (SJ-29B)    
1 67403U 25315C   26178.97751095 -.00000059  00000+0  00000+0 0  9996
2 67403   3.4236  94.8487 0004576  37.1091 209.2032  1.00271216  1798
ELEKTRO-L 5             
1 67756U 26028A   26178.02446657 -.00000086  00000+0  00000+0 0  9990
2 67756   0.2345 316.0749 0001771 182.8588 221.0766  1.00272149  1352
JAM-E JAM 1             
1 67757U 26028B   26178.95560672  .00000168  00000+0  00000+0 0  9997
2 67757   0.2383 305.7821 0001201 350.2704 358.1476  1.00266386  1222
ECHOSTAR 25             
1 68126U 26045A   26178.85552995  .00000000  00000+0  00000+0 0  9990
2 68126   0.0287  31.1685 0001722  74.4162   8.3704  1.00272583  1104
