OBJECT_NAME,OBJECT_ID,EPOCH,MEAN_MOTION,ECCENTRICITY,INCLINATION,RA_OF_ASC_NODE,ARG_OF_PERICENTER,MEAN_ANOMALY,EPHEMERIS_TYPE,CLASSIFICATION_TYPE,NORAD_CAT_ID,ELEMENT_SET_NO,REV_AT_EPOCH,BSTAR,MEAN_MOTION_DOT,MEAN_MOTION_DDOT
THURAYA-4,2025-001A,2026-06-27T22:06:38.452896,1.00274358,.00003477,0.0193,59.7103,350.9807,241.3008,0,U,62483,999,428,0,.151E-5,0
SHIJIAN-25 (SJ-25),2025-002A,2026-06-27T18:33:38.418048,1.00279028,.0051248,5.1374,61.1022,174.7567,85.7137,0,U,62485,999,546,0,-.342E-5,0
TJS-14,2025-017A,2026-06-28T00:02:36.389184,1.00269775,.00011302,0.7585,296.3685,291.2944,67.4851,0,U,62804,999,537,0,.128E-5,0
SPAINSAT NG I,2025-021A,2026-06-27T19:29:17.868768,1.00270488,.0000291,0.0174,353.9578,83.5157,159.7520,0,U,62852,999,409,0,.163E-5,0
QZS-6 (MICHIBIKI-6),2025-023A,2026-06-27T23:26:01.914720,1.00273273,.00020919,0.0531,281.8260,187.2347,249.0484,0,U,62876,999,505,0,-.222E-5,0
ZHONGXING-10R,2025-036A,2026-06-27T23:31:47.613216,1.00273355,.00039784,0.0661,248.1157,256.2189,235.2213,0,U,63075,999,506,0,-.34E-5,0
TJS-15,2025-045A,2026-06-27T18:10:05.753856,1.00268468,.00046,0.2983,85.6294,303.6535,253.4359,0,U,63157,999,486,0,-.252E-5,0
TIANLIAN 2-04,2025-062A,2026-06-27T22:51:37.162080,1.00271833,.00311183,4.3474,274.2809,10.1825,54.5624,0,U,63361,999,471,0,-.118E-5,0
TJS-16,2025-064A,2026-06-27T18:19:33.316320,1.00272301,.000319,1.1249,81.4164,299.2299,330.7308,0,U,63397,999,449,0,-.94E-6,0
TJS-17,2025-073A,2026-06-27T18:41:52.913760,1.00270974,.000182,1.0909,82.6274,313.4105,324.8708,0,U,63524,999,439,0,-.59E-6,0
TIANLIAN 2-05,2025-084A,2026-06-28T01:04:38.813952,1.00275415,.0003447,4.4242,279.7079,156.2864,236.7154,0,U,63662,999,449,0,.142E-5,0
TJS-19,2025-097A,2026-06-27T17:53:35.183904,1.00273761,.0003102,3.2685,317.6134,238.2200,129.6850,0,U,63924,999,425,0,-.261E-5,0
CHINASAT 3B,2025-106A,2026-06-27T21:51:22.391712,1.00272032,.0003643,0.0214,113.4177,14.0717,283.6680,0,U,64062,999,416,0,-.33E-6,0
SXM-10,2025-122A,2026-06-27T17:05:13.564320,1.00272372,.00019133,0.0182,31.1534,338.4571,46.3449,0,U,64290,999,378,0,-.5E-7,0
COSMOS 2589,2025-131A,2026-06-27T18:09:01.370304,1.00279915,.0000528,0.0431,113.4326,15.5786,157.0876,0,U,64467,999,366,0,-.281E-5,0
CHINASAT 9C,2025-132A,2026-06-27T21:10:21.533088,1.00271755,.0003403,0.0358,93.6029,359.3649,232.8161,0,U,64470,999,425,0,-.236E-5,0
MTG-S1,2025-143A,2026-06-27T22:46:10.734240,1.00271994,.00027489,0.5946,341.2382,268.0372,7.8563,0,U,64723,999,352,0,.4E-7,0
DROR 1,2025-148A,2026-06-27T22:15:38.750112,1.00272033,.00027124,0.0166,347.7682,52.2704,205.8821,0,U,64784,999,340,0,-.23E-6,0
SHIYAN-29,2025-196A,2026-06-27T15:01:40.027008,1.00283230,.00128064,28.8324,18.4036,174.9175,42.7694,0,U,65486,999,298,0,-.276E-5,0
NUSANTARA LIMA (NUSANTARA 5),2025-205A,2026-06-27T23:29:04.063200,1.00270339,.00005422,0.0074,119.1855,19.5255,242.4996,0,U,65588,999,282,0,-.346E-5,0
TJS-20,2025-238A,2026-06-27T22:29:09.299616,1.00270782,.00047474,5.4456,299.5100,165.2410,210.9651,0,U,66142,999,244,0,.42E-6,0
CMS-03 (GSAT-7R),2025-249B,2026-06-27T20:23:26.664288,1.00271929,.00021871,0.0664,263.2803,166.5830,225.9223,0,U,66311,999,245,0,-.65E-6,0
VIASAT-3 F2,2025-261A,2026-06-27T20:41:08.336256,1.00271728,.00005219,0.0038,302.9770,224.3910,339.9054,0,U,66454,999,290,0,-.222E-5,0
SHIJIAN-28 (SJ-28),2025-277A,2026-06-27T23:33:14.499648,1.00272495,.0000718,4.5109,271.9575,44.5636,69.7202,0,U,66549,999,226,0,-.343E-5,0
TJS-22,2025-290A,2026-06-27T20:20:50.572320,1.00272783,.00022903,1.5031,286.6917,322.1718,38.7637,0,U,66990,999,213,0,.7E-7,0
TJS-23,2025-306A,2026-06-27T13:45:58.418784,1.00271320,.00045344,5.5645,297.4332,181.6850,178.5201,0,U,67226,999,199,0,.34E-6,0
FENGYUN 4C,2025-312A,2026-06-28T01:06:52.634592,1.00272145,.0000589,0.0484,170.1852,350.5369,265.1486,0,U,67246,999,188,0,-.311E-5,0
SHIJIAN-29A (SJ-29A),2025-315A,2026-06-27T23:27:59.940576,1.00271262,.00035777,3.4246,94.8558,23.2879,223.0792,0,U,67302,999,172,0,-.58E-6,0
SHIJIAN-29B (SJ-29B),2025-315C,2026-06-27T23:27:36.946080,1.00271216,.00045768,3.4236,94.8487,37.1091,209.2032,0,U,67403,999,179,0,-.59E-6,0
ELEKTRO-L 5,2026-028A,2026-06-27T00:35:13.911648,1.00272149,.00017718,0.2345,316.0749,182.8588,221.0766,0,U,67756,999,135,0,-.86E-6,0
JAM-E JAM 1,2026-028B,2026-06-27T22:56:04.420608,1.00266386,.00012019,0.2383,305.7821,350.2704,358.1476,0,U,67757,999,122,0,.168E-5,0
ECHOSTAR 25,2026-045A,2026-06-27T20:31:57.787680,1.00272583,.00017227,0.0287,31.1685,74.4162,8.3704,0,U,68126,999,110,0,0,0
